CTC1_L_00053016-03
1 40240U 26151EX  26070.40831019  .00000000  00000+0  00000-0 0  9995
2 40240  85.0000 180.0000 0000000   0.0000   0.0000 15.08756051    13
CTC1_L_00053016-04
1 40241U 25936UR  26070.40831019  .00000000  00000+0  00000-0 0  9996
2 40241  85.0000 180.0000 0000000   0.0000  90.0000 15.08756051    13
CTC1_L_00053017-01
1 40242U 26668KT  26070.40831019  .00000000  00000+0  00000-0 0  9990
2 40242  85.0000 192.0000 0000000   0.0000 192.0000 15.08756051    10
CTC1_L_00053017-02
1 40243U 24840CT  26070.40831019  .00000000  00000+0  00000-0 0  9991
2 40243  85.0000 192.0000 0000000   0.0000 282.0000 15.08756051    11
CTC1_L_00053017-03
1 40244U 26996AX  26070.40831019  .00000000  00000+0  00000-0 0  9996
2 40244  85.0000 192.0000 0000000   0.0000  12.0000 15.08756051    13
CTC1_L_00053017-04
1 40245U 22499PV  26070.40831019  .00000000  00000+0  00000-0 0  9991
2 40245  85.0000 192.0000 0000000   0.0000 102.0000 15.08756051    14
CTC1_L_00053018-01
1 40246U 22320O   26070.40831019  .00000000  00000+0  00000-0 0  9995
2 40246  85.0000 204.0000 0000000   0.0000 204.0000 15.08756051    12
CTC1_L_00053018-02
1 40247U 23566BL  26070.40831019  .00000000  00000+0  00000-0 0  9999
2 40247  85.0000 204.0000 0000000   0.0000 294.0000 15.08756051    12
CTC1_L_00053018-03
1 40248U 24984EZ  26070.40831019  .00000000  00000+0  00000-0 0  9995
2 40248  85.0000 204.0000 0000000   0.0000  24.0000 15.08756051    14
CTC1_L_00053018-04
1 40249U 23194LH  26070.40831019  .00000000  00000+0  00000-0 0  9998
2 40249  85.0000 204.0000 0000000   0.0000 114.0000 15.08756051    15
CTC1_L_00053019-01
1 40250U 26970QK  26070.40831019  .00000000  00000+0  00000-0 0  9995
2 40250  85.0000 216.0000 0000000   0.0000 216.0000 15.08756051    13
CTC1_L_00053019-02
1 40251U 22614HV  26070.40831019  .00000000  00000+0  00000-0 0  9997
2 40251  85.0000 216.0000 0000000   0.0000 306.0000 15.08756051    14
CTC1_L_00053019-03
1 40252U 24029RD  26070.40831019  .00000000  00000+0  00000-0 0  9990
2 40252  85.0000 216.0000 0000000   0.0000  36.0000 15.08756051    15
CTC1_L_00053019-04
1 40253U 26405OW  26070.40831019  .00000000  00000+0  00000-0 0  9991
2 40253  85.0000 216.0000 0000000   0.0000 126.0000 15.08756051    16
CTC1_L_00053020-01
1 40254U 25754LA  26070.40831019  .00000000  00000+0  00000-0 0  9998
2 40254  85.0000 228.0000 0000000   0.0000 228.0000 15.08756051    13
CTC1_L_00053020-02
1 40255U 22990SR  26070.40831019  .00000000  00000+0  00000-0 0  9998
2 40255  85.0000 228.0000 0000000   0.0000 318.0000 15.08756051    14
CTC1_L_00053020-03
1 40256U 23446RH  26070.40831019  .00000000  00000+0  00000-0 0  9996
2 40256  85.0000 228.0000 0000000   0.0000  48.0000 15.08756051    15
CTC1_L_00053020-04
1 40257U 22061OX  26070.40831019  .00000000  00000+0  00000-0 0  9999
2 40257  85.0000 228.0000 0000000   0.0000 138.0000 15.08756051    16
CTC1_L_00053021-01
1 40258U 25803NS  26070.40831019  .00000000  00000+0  00000-0 0  9997
2 40258  85.0000 240.0000 0000000   0.0000 240.0000 15.08756051    15
CTC1_L_00053021-02
1 40259U 24841QZ  26070.40831019  .00000000  00000+0  00000-0 0  9999
2 40259  85.0000 240.0000 0000000   0.0000 330.0000 15.08756051    16
CTC1_L_00053021-03
1 40260U 22505OS  26070.40831019  .00000000  00000+0  00000-0 0  9996
2 40260  85.0000 240.0000 0000000   0.0000  60.0000 15.08756051    18
CTC1_L_00053021-04
1 40261U 23700UO  26070.40831019  .00000000  00000+0  00000-0 0  9995
2 40261  85.0000 240.0000 0000000   0.0000 150.0000 15.08756051    19
CTC1_L_00053022-01
1 40262U 24799JP  26070.40831019  .00000000  00000+0  00000-0 0  9995
2 40262  85.0000 252.0000 0000000   0.0000 252.0000 15.08756051    16
CTC1_L_00053022-02
1 40263U 25192JE  26070.40831019  .00000000  00000+0  00000-0 0  9994
2 40263  85.0000 252.0000 0000000   0.0000 342.0000 15.08756051    17
CTC1_L_00053022-03
1 40264U 26492MT  26070.40831019  .00000000  00000+0  00000-0 0  9999
2 40264  85.0000 252.0000 0000000   0.0000  72.0000 15.08756051    18
CTC1_L_00053022-04
1 40265U 24194RQ  26070.40831019  .00000000  00000+0  00000-0 0  9997
2 40265  85.0000 252.0000 0000000   0.0000 162.0000 15.08756051    19
CTC1_L_00053023-01
1 40266U 23689OJ  26070.40831019  .00000000  00000+0  00000-0 0  9996
2 40266  85.0000 264.0000 0000000   0.0000 264.0000 15.08756051    16
CTC1_L_00053023-02
1 40267U 24440RP  26070.40831019  .00000000  00000+0  00000-0 0  9993
2 40267  85.0000 264.0000 0000000   0.0000 354.0000 15.08756051    17
CTC1_L_00053023-03
1 40268U 25149VW  26070.40831019  .00000000  00000+0  00000-0 0  9991
2 40268  85.0000 264.0000 0000000   0.0000  84.0000 15.08756051    18
CTC1_L_00053023-04
1 40269U 22193H   26070.40831019  .00000000  00000+0  00000-0 0  9998
2 40269  85.0000 264.0000 0000000   0.0000 174.0000 15.08756051    19
CTC1_L_00053024-01
1 40270U 24483KP  26070.40831019  .00000000  00000+0  00000-0 0  9994
2 40270  85.0000 276.0000 0000000   0.0000 276.0000 15.08756051    17
CTC1_L_00053024-02
1 40271U 24144KY  26070.40831019  .00000000  00000+0  00000-0 0  9999
2 40271  85.0000 276.0000 0000000   0.0000   6.0000 15.08756051    19
CTC1_L_00053024-03
1 40272U 26015G   26070.40831019  .00000000  00000+0  00000-0 0  9999
2 40272  85.0000 276.0000 0000000   0.0000  96.0000 15.08756051    19
CTC1_L_00053024-04
1 40273U 24652FV  26070.40831019  .00000000  00000+0  00000-0 0  9995
2 40273  85.0000 276.0000 0000000   0.0000 186.0000 15.08756051    10
CTC1_L_00053025-01
1 40274U 24268LJ  26070.40831019  .00000000  00000+0  00000-0 0  9999
2 40274  85.0000 288.0000 0000000   0.0000 288.0000 15.08756051    17
CTC1_L_00053025-02
1 40275U 25249UO  26070.40831019  .00000000  00000+0  00000-0 0  9990
2 40275  85.0000 288.0000 0000000   0.0000  18.0000 15.08756051    19
CTC1_L_00053025-03
1 40276U 23416MV  26070.40831019  .00000000  00000+0  00000-0 0  9995
2 40276  85.0000 288.0000 0000000   0.0000 108.0000 15.08756051    10
CTC1_L_00053025-04
1 40277U 24163QG  26070.40831019  .00000000  00000+0  00000-0 0  9996
2 40277  85.0000 288.0000 0000000   0.0000 198.0000 15.08756051    10
CTC1_L_00053026-01
1 40278U 25211AF  26070.40831019  .00000000  00000+0  00000-0 0  9992
2 40278  85.0000 300.0000 0000000   0.0000 300.0000 15.08756051    11
CTC1_L_00053026-02
1 40279U 25385PH  26070.40831019  .00000000  00000+0  00000-0 0  9995
2 40279  85.0000 300.0000 0000000   0.0000  30.0000 15.08756051    12
CTC1_L_00053026-03
1 40280U 24534WL  26070.40831019  .00000000  00000+0  00000-0 0  9992
2 40280  85.0000 300.0000 0000000   0.0000 120.0000 15.08756051    14
CTC1_L_00053026-04
1 40281U 23512MB  26070.40831019  .00000000  00000+0  00000-0 0  9998
2 40281  85.0000 300.0000 0000000   0.0000 210.0000 15.08756051    15
CTC1_L_00053027-01
1 40282U 22329YL  26070.40831019  .00000000  00000+0  00000-0 0  9994
2 40282  85.0000 312.0000 0000000   0.0000 312.0000 15.08756051    12
CTC1_L_00053027-02
1 40283U 24715DU  26070.40831019  .00000000  00000+0  00000-0 0  9996
2 40283  85.0000 312.0000 0000000   0.0000  42.0000 15.08756051    13
CTC1_L_00053027-03
1 40284U 22195CD  26070.40831019  .00000000  00000+0  00000-0 0  9997
2 40284  85.0000 312.0000 0000000   0.0000 132.0000 15.08756051    14
CTC1_L_00053027-04
1 40285U 25619GU  26070.40831019  .00000000  00000+0  00000-0 0  9992
2 40285  85.0000 312.0000 0000000   0.0000 222.0000 15.08756051    15
CTC1_L_00053028-01
1 40286U 22558ZO  26070.40831019  .00000000  00000+0  00000-0 0  9992
2 40286  85.0000 324.0000 0000000   0.0000 324.0000 15.08756051    12
CTC1_L_00053028-02
1 40287U 25844ZJ  26070.40831019  .00000000  00000+0  00000-0 0  9994
2 40287  85.0000 324.0000 0000000   0.0000  54.0000 15.08756051    13
CTC1_L_00053028-03
1 40288U 26973MK  26070.40831019  .00000000  00000+0  00000-0 0  9999
2 40288  85.0000 324.0000 0000000   0.0000 144.0000 15.08756051    14
CTC1_L_00053028-04
1 40289U 25978J   26070.40831019  .00000000  00000+0  00000-0 0  9994
2 40289  85.0000 324.0000 0000000   0.0000 234.0000 15.08756051    15
CTC1_L_00053029-01
1 40290U 26225NK  26070.40831019  .00000000  00000+0  00000-0 0  9992
2 40290  85.0000 336.0000 0000000   0.0000 336.0000 15.08756051    13
CTC1_L_00053029-02
1 40291U 25590F   26070.40831019  .00000000  00000+0  00000-0 0  9997
2 40291  85.0000 336.0000 0000000   0.0000  66.0000 15.08756051    14
CTC1_L_00053029-03
1 40292U 25718QQ  26070.40831019  .00000000  00000+0  00000-0 0  9990
2 40292  85.0000 336.0000 0000000   0.0000 156.0000 15.08756051    15
CTC1_L_00053029-04
1 40293U 26361DR  26070.40831019  .00000000  00000+0  00000-0 0  9996
2 40293  85.0000 336.0000 0000000   0.0000 246.0000 15.08756051    16
CTC1_L_00053030-01
1 40294U 23469ON  26070.40831019  .00000000  00000+0  00000-0 0  9993
2 40294  85.0000 348.0000 0000000   0.0000 348.0000 15.08756051    13
CTC1_L_00053030-02
1 40295U 22605KL  26070.40831019  .00000000  00000+0  00000-0 0  9995
2 40295  85.0000 348.0000 0000000   0.0000  78.0000 15.08756051    14
CTC1_L_00053030-03
1 40296U 25228XO  26070.40831019  .00000000  00000+0  00000-0 0  9990
2 40296  85.0000 348.0000 0000000   0.0000 168.0000 15.08756051    15
CTC1_L_00053030-04
1 40297U 26456ZX  26070.40831019  .00000000  00000+0  00000-0 0  9995
2 40297  85.0000 348.0000 0000000   0.0000 258.0000 15.08756051    16
